[{"OBJECT_NAME":"ONEWEB-0657","OBJECT_ID":"2023-029Y","EPOCH":"2026-02-16T19:51:39.593376","MEAN_MOTION":13.19722992,"ECCENTRICITY":0.0002479,"INCLINATION":87.9248,"RA_OF_ASC_NODE":328.9434,"ARG_OF_PERICENTER":78.1663,"MEAN_ANOMALY":281.9748,"EPHEMERIS_TYPE":0,"CLASSIFICATION_TYPE":"U","NORAD_CAT_ID":55818,"ELEMENT_SET_NO":999,"REV_AT_EPOCH":14303,"BSTAR":-0.00012181,"MEAN_MOTION_DOT":-3.6e-7,"MEAN_MOTION_DDOT":0},{"OBJECT_NAME":"ONEWEB-0658","OBJECT_ID":"2023-029Z","EPOCH":"2026-02-16T19:44:49.981344","MEAN_MOTION":13.19723629,"ECCENTRICITY":0.0001715,"INCLINATION":87.9261,"RA_OF_ASC_NODE":328.9087,"ARG_OF_PERICENTER":94.1261,"MEAN_ANOMALY":266.0067,"EPHEMERIS_TYPE":0,"CLASSIFICATION_TYPE":"U","NORAD_CAT_ID":55819,"ELEMENT_SET_NO":999,"REV_AT_EPOCH":14304,"BSTAR":-2.7726e-5,"MEAN_MOTION_DOT":2.0e-8,"MEAN_MOTION_DDOT":0},{"OBJECT_NAME":"ONEWEB-0660","OBJECT_ID":"2023-029AA","EPOCH":"2026-02-17T03:57:37.918080","MEAN_MOTION":13.14501086,"ECCENTRICITY":0.0001378,"INCLINATION":87.9017,"RA_OF_ASC_NODE":313.6317,"ARG_OF_PERICENTER":76.7403,"MEAN_ANOMALY":283.3881,"EPHEMERIS_TYPE":0,"CLASSIFICATION_TYPE":"U","NORAD_CAT_ID":55820,"ELEMENT_SET_NO":999,"REV_AT_EPOCH":14363,"BSTAR":0.00026075,"MEAN_MOTION_DOT":1.09e-6,"MEAN_MOTION_DDOT":0},{"OBJECT_NAME":"ONEWEB-0661","OBJECT_ID":"2023-029AB","EPOCH":"2026-02-17T02:58:14.760480","MEAN_MOTION":13.1450097,"ECCENTRICITY":0.0001389,"INCLINATION":87.9012,"RA_OF_ASC_NODE":313.698,"ARG_OF_PERICENTER":75.2896,"MEAN_ANOMALY":284.8388,"EPHEMERIS_TYPE":0,"CLASSIFICATION_TYPE":"U","NORAD_CAT_ID":55821,"ELEMENT_SET_NO":999,"REV_AT_EPOCH":14361,"BSTAR":0.00022203,"MEAN_MOTION_DOT":9.5e-7,"MEAN_MOTION_DDOT":0},{"OBJECT_NAME":"ONEWEB-0662","OBJECT_ID":"2023-029AC","EPOCH":"2026-02-17T03:48:29.168352","MEAN_MOTION":13.14503886,"ECCENTRICITY":0.0001391,"INCLINATION":87.9008,"RA_OF_ASC_NODE":313.6979,"ARG_OF_PERICENTER":77.711,"MEAN_ANOMALY":282.4176,"EPHEMERIS_TYPE":0,"CLASSIFICATION_TYPE":"U","NORAD_CAT_ID":55822,"ELEMENT_SET_NO":999,"REV_AT_EPOCH":14366,"BSTAR":-8.2168e-5,"MEAN_MOTION_DOT":-1.8e-7,"MEAN_MOTION_DDOT":0},{"OBJECT_NAME":"ONEWEB-0663","OBJECT_ID":"2023-029AD","EPOCH":"2026-02-17T04:07:47.822592","MEAN_MOTION":13.20860832,"ECCENTRICITY":0.0001299,"INCLINATION":87.9215,"RA_OF_ASC_NODE":298.457,"ARG_OF_PERICENTER":95.1275,"MEAN_ANOMALY":265.0006,"EPHEMERIS_TYPE":0,"CLASSIFICATION_TYPE":"U","NORAD_CAT_ID":55823,"ELEMENT_SET_NO":999,"REV_AT_EPOCH":14530,"BSTAR":0.00025095,"MEAN_MOTION_DOT":1.15e-6,"MEAN_MOTION_DDOT":0},{"OBJECT_NAME":"ONEWEB-0664","OBJECT_ID":"2023-029AE","EPOCH":"2026-02-17T02:48:25.026048","MEAN_MOTION":13.20774008,"ECCENTRICITY":0.000135,"INCLINATION":87.9194,"RA_OF_ASC_NODE":298.4629,"ARG_OF_PERICENTER":67.8054,"MEAN_ANOMALY":292.3223,"EPHEMERIS_TYPE":0,"CLASSIFICATION_TYPE":"U","NORAD_CAT_ID":55824,"ELEMENT_SET_NO":999,"REV_AT_EPOCH":14529,"BSTAR":0.00029862,"MEAN_MOTION_DOT":1.34e-6,"MEAN_MOTION_DDOT":0},{"OBJECT_NAME":"ONEWEB-0665","OBJECT_ID":"2023-029AF","EPOCH":"2026-02-17T02:53:41.598240","MEAN_MOTION":13.14503059,"ECCENTRICITY":0.000136,"INCLINATION":87.9018,"RA_OF_ASC_NODE":313.678,"ARG_OF_PERICENTER":84.9122,"MEAN_ANOMALY":275.2163,"EPHEMERIS_TYPE":0,"CLASSIFICATION_TYPE":"U","NORAD_CAT_ID":55825,"ELEMENT_SET_NO":999,"REV_AT_EPOCH":14363,"BSTAR":0.00045229,"MEAN_MOTION_DOT":1.8e-6,"MEAN_MOTION_DDOT":0},{"OBJECT_NAME":"ONEWEB-0666","OBJECT_ID":"2023-029AG","EPOCH":"2026-02-16T17:33:51.975648","MEAN_MOTION":13.20770481,"ECCENTRICITY":0.0002367,"INCLINATION":87.92,"RA_OF_ASC_NODE":298.5294,"ARG_OF_PERICENTER":79.3179,"MEAN_ANOMALY":280.8221,"EPHEMERIS_TYPE":0,"CLASSIFICATION_TYPE":"U","NORAD_CAT_ID":55826,"ELEMENT_SET_NO":999,"REV_AT_EPOCH":14525,"BSTAR":-2.0669e-5,"MEAN_MOTION_DOT":5.0e-8,"MEAN_MOTION_DDOT":0},{"OBJECT_NAME":"ONEWEB-0667","OBJECT_ID":"2023-029AH","EPOCH":"2026-02-16T17:24:45.969984","MEAN_MOTION":13.20770101,"ECCENTRICITY":0.0001473,"INCLINATION":87.9205,"RA_OF_ASC_NODE":298.4701,"ARG_OF_PERICENTER":81.0295,"MEAN_ANOMALY":279.1005,"EPHEMERIS_TYPE":0,"CLASSIFICATION_TYPE":"U","NORAD_CAT_ID":55827,"ELEMENT_SET_NO":999,"REV_AT_EPOCH":14524,"BSTAR":0.00013482,"MEAN_MOTION_DOT":6.8e-7,"MEAN_MOTION_DDOT":0},{"OBJECT_NAME":"ONEWEB-0669","OBJECT_ID":"2023-029AJ","EPOCH":"2026-02-17T04:12:29.054592","MEAN_MOTION":13.2077021,"ECCENTRICITY":0.000188,"INCLINATION":87.9194,"RA_OF_ASC_NODE":298.4068,"ARG_OF_PERICENTER":60.1724,"MEAN_ANOMALY":299.9596,"EPHEMERIS_TYPE":0,"CLASSIFICATION_TYPE":"U","NORAD_CAT_ID":55828,"ELEMENT_SET_NO":999,"REV_AT_EPOCH":14530,"BSTAR":0.00041061,"MEAN_MOTION_DOT":1.8e-6,"MEAN_MOTION_DDOT":0},{"OBJECT_NAME":"ONEWEB-0670","OBJECT_ID":"2023-029AK","EPOCH":"2026-02-17T04:11:19.614048","MEAN_MOTION":13.14504311,"ECCENTRICITY":0.0001368,"INCLINATION":87.9012,"RA_OF_ASC_NODE":313.6865,"ARG_OF_PERICENTER":68.4585,"MEAN_ANOMALY":291.669,"EPHEMERIS_TYPE":0,"CLASSIFICATION_TYPE":"U","NORAD_CAT_ID":55829,"ELEMENT_SET_NO":999,"REV_AT_EPOCH":14366,"BSTAR":0.00078125,"MEAN_MOTION_DOT":3.02e-6,"MEAN_MOTION_DDOT":0},{"OBJECT_NAME":"ONEWEB-0671","OBJECT_ID":"2023-029AL","EPOCH":"2026-02-16T19:38:00.566304","MEAN_MOTION":13.19723854,"ECCENTRICITY":0.000161,"INCLINATION":87.9249,"RA_OF_ASC_NODE":328.946,"ARG_OF_PERICENTER":78.2849,"MEAN_ANOMALY":281.8464,"EPHEMERIS_TYPE":0,"CLASSIFICATION_TYPE":"U","NORAD_CAT_ID":55830,"ELEMENT_SET_NO":999,"REV_AT_EPOCH":14302,"BSTAR":-2.672e-5,"MEAN_MOTION_DOT":2.0e-8,"MEAN_MOTION_DDOT":0},{"OBJECT_NAME":"ONEWEB-0672","OBJECT_ID":"2023-029AM","EPOCH":"2026-02-17T04:05:40.549344","MEAN_MOTION":13.20771234,"ECCENTRICITY":0.00019,"INCLINATION":87.9205,"RA_OF_ASC_NODE":298.3922,"ARG_OF_PERICENTER":74.9902,"MEAN_ANOMALY":285.1441,"EPHEMERIS_TYPE":0,"CLASSIFICATION_TYPE":"U","NORAD_CAT_ID":55831,"ELEMENT_SET_NO":999,"REV_AT_EPOCH":14530,"BSTAR":0.0002716,"MEAN_MOTION_DOT":1.23e-6,"MEAN_MOTION_DDOT":0},{"OBJECT_NAME":"ONEWEB-0673","OBJECT_ID":"2023-029AN","EPOCH":"2026-02-17T04:10:54.759360","MEAN_MOTION":13.19724663,"ECCENTRICITY":0.0001659,"INCLINATION":87.9253,"RA_OF_ASC_NODE":328.8597,"ARG_OF_PERICENTER":78.0374,"MEAN_ANOMALY":282.0945,"EPHEMERIS_TYPE":0,"CLASSIFICATION_TYPE":"U","NORAD_CAT_ID":55832,"ELEMENT_SET_NO":999,"REV_AT_EPOCH":14307,"BSTAR":0.00024899,"MEAN_MOTION_DOT":1.13e-6,"MEAN_MOTION_DDOT":0},{"OBJECT_NAME":"ONEWEB-0674","OBJECT_ID":"2023-029AP","EPOCH":"2026-02-17T03:25:39.348192","MEAN_MOTION":13.14504871,"ECCENTRICITY":0.0001384,"INCLINATION":87.9015,"RA_OF_ASC_NODE":313.6702,"ARG_OF_PERICENTER":65.6517,"MEAN_ANOMALY":294.4757,"EPHEMERIS_TYPE":0,"CLASSIFICATION_TYPE":"U","NORAD_CAT_ID":55833,"ELEMENT_SET_NO":999,"REV_AT_EPOCH":14364,"BSTAR":-0.00043779,"MEAN_MOTION_DOT":-1.5e-6,"MEAN_MOTION_DDOT":0},{"OBJECT_NAME":"ONEWEB-0675","OBJECT_ID":"2023-029AQ","EPOCH":"2026-02-16T19:26:38.319072","MEAN_MOTION":13.19724188,"ECCENTRICITY":0.0002061,"INCLINATION":87.9241,"RA_OF_ASC_NODE":328.9504,"ARG_OF_PERICENTER":83.1409,"MEAN_ANOMALY":276.9958,"EPHEMERIS_TYPE":0,"CLASSIFICATION_TYPE":"U","NORAD_CAT_ID":55834,"ELEMENT_SET_NO":999,"REV_AT_EPOCH":14304,"BSTAR":4.7145e-5,"MEAN_MOTION_DOT":3.2e-7,"MEAN_MOTION_DDOT":0}]
