ONEWEB-0657             
1 55818U 23029Y   26047.82754159 -.00000036  00000+0 -12181-3 0  9999
2 55818  87.9248 328.9434 0002479  78.1663 281.9748 13.19722992143038
ONEWEB-0658             
1 55819U 23029Z   26047.82280071  .00000002  00000+0 -27726-4 0  9991
2 55819  87.9261 328.9087 0001715  94.1261 266.0067 13.19723629143049
ONEWEB-0660             
1 55820U 23029AA  26048.16502220  .00000109  00000+0  26075-3 0  9996
2 55820  87.9017 313.6317 0001378  76.7403 283.3881 13.14501086143633
ONEWEB-0661             
1 55821U 23029AB  26048.12378195  .00000095  00000+0  22203-3 0  9998
2 55821  87.9012 313.6980 0001389  75.2896 284.8388 13.14500970143614
ONEWEB-0662             
1 55822U 23029AC  26048.15867093 -.00000018  00000+0 -82168-4 0  9996
2 55822  87.9008 313.6979 0001391  77.7110 282.4176 13.14503886143660
ONEWEB-0663             
1 55823U 23029AD  26048.17208128  .00000115  00000+0  25095-3 0  9998
2 55823  87.9215 298.4570 0001299  95.1275 265.0006 13.20860832145307
ONEWEB-0664             
1 55824U 23029AE  26048.11695632  .00000134  00000+0  29862-3 0  9990
2 55824  87.9194 298.4629 0001350  67.8054 292.3223 13.20774008145299
ONEWEB-0665             
1 55825U 23029AF  26048.12062035  .00000180  00000+0  45229-3 0  9993
2 55825  87.9018 313.6780 0001360  84.9122 275.2163 13.14503059143638
ONEWEB-0666             
1 55826U 23029AG  26047.73185157  .00000005  00000+0 -20669-4 0  9990
2 55826  87.9200 298.5294 0002367  79.3179 280.8221 13.20770481145250
ONEWEB-0667             
1 55827U 23029AH  26047.72553206  .00000068  00000+0  13482-3 0  9996
2 55827  87.9205 298.4701 0001473  81.0295 279.1005 13.20770101145243
ONEWEB-0669             
1 55828U 23029AJ  26048.17533628  .00000180  00000+0  41061-3 0  9992
2 55828  87.9194 298.4068 0001880  60.1724 299.9596 13.20770210145307
ONEWEB-0670             
1 55829U 23029AK  26048.17453257  .00000302  00000+0  78125-3 0  9999
2 55829  87.9012 313.6865 0001368  68.4585 291.6690 13.14504311143660
ONEWEB-0671             
1 55830U 23029AL  26047.81806211  .00000002  00000+0 -26720-4 0  9996
2 55830  87.9249 328.9460 0001610  78.2849 281.8464 13.19723854143026
ONEWEB-0672             
1 55831U 23029AM  26048.17060821  .00000123  00000+0  27160-3 0  9997
2 55831  87.9205 298.3922 0001900  74.9902 285.1441 13.20771234145309
ONEWEB-0673             
1 55832U 23029AN  26048.17424490  .00000113  00000+0  24899-3 0  9999
2 55832  87.9253 328.8597 0001659  78.0374 282.0945 13.19724663143078
ONEWEB-0674             
1 55833U 23029AP  26048.14281653 -.00000150  00000+0 -43779-3 0  9990
2 55833  87.9015 313.6702 0001384  65.6517 294.4757 13.14504871143644
ONEWEB-0675             
1 55834U 23029AQ  26047.81016573  .00000032  00000+0  47145-4 0  9990
2 55834  87.9241 328.9504 0002061  83.1409 276.9958 13.19724188143045
